{"type": "FeatureCollection", "features": [ {"type": "Feature", "properties": {"norad_id": 41556, "name": "ZIYUAN 3-02 (ZY 3-02)", "group": "resource", "lat": -10.95272807712953, "lon": 70.8657733594003, "alt_km": 512.1482206123956, "timestamp": "2025-12-21T09:37:22.305732+00:00", "meta": {"OBJECT_NAME": "ZIYUAN 3-02 (ZY 3-02)", "OBJECT_ID": "2016-033A", "EPOCH": "2025-12-21T04:56:06.504576", "MEAN_MOTION": 15.21164954, "ECCENTRICITY": 0.0011114, "INCLINATION": 97.4036, "RA_OF_ASC_NODE": 69.2318, "ARG_OF_PERICENTER": 214.4828, "MEAN_ANOMALY": 145.5687, "EPHEMERIS_TYPE": 0, "CLASSIFICATION_TYPE": "U", "NORAD_CAT_ID": 41556, "ELEMENT_SET_NO": 999, "REV_AT_EPOCH": 53092, "BSTAR": 0.00022407, "MEAN_MOTION_DOT": 4.931e-05, "MEAN_MOTION_DDOT": 0}, "tle": {"line1": "1 41556U 16033A   25355.20563084  .00004931  00000+0  22407-3 0  9996", "line2": "2 41556  97.4036  69.2318 0011114 214.4828 145.5687 15.21164954530921"}}, "geometry": {"type": "Point", "coordinates": [70.8657733594003, -10.95272807712953]}}, {"type": "Feature", "properties": {"norad_id": 41599, "name": "CARTOSAT-2C", "group": "resource", "lat": -47.63062432104658, "lon": -135.71537757423752, "alt_km": 522.5743638122885, "timestamp": "2025-12-21T09:37:22.305742+00:00", "meta": {"OBJECT_NAME": "CARTOSAT-2C", "OBJECT_ID": "2016-040A", "EPOCH": "2025-12-21T03:52:46.813152", "MEAN_MOTION": 15.19184303, "ECCENTRICITY": 0.0010987, "INCLINATION": 97.4759, "RA_OF_ASC_NODE": 52.3251, "ARG_OF_PERICENTER": 36.8296, "MEAN_ANOMALY": 323.3691, "EPHEMERIS_TYPE": 0, "CLASSIFICATION_TYPE": "U", "NORAD_CAT_ID": 41599, "ELEMENT_SET_NO": 999, "REV_AT_EPOCH": 52668, "BSTAR": 0.00012834, "MEAN_MOTION_DOT": 2.634e-05, "MEAN_MOTION_DDOT": 0}, "tle": {"line1": "1 41599U 16040A   25355.16165293  .00002634  00000+0  12834-3 0  9997", "line2": "2 41599  97.4759  52.3251 0010987  36.8296 323.3691 15.19184303526687"}}, "geometry": {"type": "Point", "coordinates": [-135.71537757423752, -47.63062432104658]}}, {"type": "Feature", "properties": {"norad_id": 41601, "name": "SKYSAT-C1", "group": "resource", "lat": -18.069302707860412, "lon": 34.21767208709704, "alt_km": 471.83354530134784, "timestamp": "2025-12-21T09:37:22.305752+00:00", "meta": {"OBJECT_NAME": "SKYSAT-C1", "OBJECT_ID": "2016-040C", "EPOCH": "2025-12-21T01:52:04.162080", "MEAN_MOTION": 15.32727522, "ECCENTRICITY": 0.0001409, "INCLINATION": 96.9809, "RA_OF_ASC_NODE": 31.6216, "ARG_OF_PERICENTER": 345.105, "MEAN_ANOMALY": 15.0151, "EPHEMERIS_TYPE": 0, "CLASSIFICATION_TYPE": "U", "NORAD_CAT_ID": 41601, "ELEMENT_SET_NO": 999, "REV_AT_EPOCH": 53055, "BSTAR": 0.00019483, "MEAN_MOTION_DOT": 6.086e-05, "MEAN_MOTION_DDOT": 0}, "tle": {"line1": "1 41601U 16040C   25355.07782595  .00006086  00000+0  19483-3 0  9993", "line2": "2 41601  96.9809  31.6216 0001409 345.1050  15.0151 15.32727522530553"}}, "geometry": {"type": "Point", "coordinates": [34.21767208709704, -18.069302707860412]}}, {"type": "Feature", "properties": {"norad_id": 41603, "name": "LAPAN-A3", "group": "resource", "lat": 82.53554909344068, "lon": -114.20470007542443, "alt_km": 468.9764812485719, "timestamp": "2025-12-21T09:37:22.305763+00:00", "meta": {"OBJECT_NAME": "LAPAN-A3", "OBJECT_ID": "2016-040E", "EPOCH": "2025-12-21T04:31:04.298016", "MEAN_MOTION": 15.31613794, "ECCENTRICITY": 0.0008885, "INCLINATION": 97.1425, "RA_OF_ASC_NODE": 352.4372, "ARG_OF_PERICENTER": 299.4606, "MEAN_ANOMALY": 60.5749, "EPHEMERIS_TYPE": 0, "CLASSIFICATION_TYPE": "U", "NORAD_CAT_ID": 41603, "ELEMENT_SET_NO": 999, "REV_AT_EPOCH": 52755, "BSTAR": 9.6882e-05, "MEAN_MOTION_DOT": 2.886e-05, "MEAN_MOTION_DDOT": 0}, "tle": {"line1": "1 41603U 16040E   25355.18824419  .00002886  00000+0  96882-4 0  9992", "line2": "2 41603  97.1425 352.4372 0008885 299.4606  60.5749 15.31613794527550"}}, "geometry": {"type": "Point", "coordinates": [-114.20470007542443, 82.53554909344068]}}, {"type": "Feature", "properties": {"norad_id": 41604, "name": "BIROS", "group": "resource", "lat": -23.286482538027915, "lon": 30.263440509815922, "alt_km": 301.9427081572712, "timestamp": "2025-12-21T09:37:22.305774+00:00", "meta": {"OBJECT_NAME": "BIROS", "OBJECT_ID": "2016-040F", "EPOCH": "2025-12-21T00:40:29.531712", "MEAN_MOTION": 15.92820677, "ECCENTRICITY": 0.0003709, "INCLINATION": 97.0689, "RA_OF_ASC_NODE": 26.8121, "ARG_OF_PERICENTER": 133.4081, "MEAN_ANOMALY": 226.7504, "EPHEMERIS_TYPE": 0, "CLASSIFICATION_TYPE": "U", "NORAD_CAT_ID": 41604, "ELEMENT_SET_NO": 999, "REV_AT_EPOCH": 53004, "BSTAR": 0.00051492, "MEAN_MOTION_DOT": 0.00176298, "MEAN_MOTION_DDOT": 1.357e-05}, "tle": {"line1": "1 41604U 16040F   25355.02811958  .00176298  13570-4  51492-3 0  9997", "line2": "2 41604  97.0689  26.8121 0003709 133.4081 226.7504 15.92820677530040"}}, "geometry": {"type": "Point", "coordinates": [30.263440509815922, -23.286482538027915]}}, {"type": "Feature", "properties": {"norad_id": 41727, "name": "GAOFEN-3", "group": "resource", "lat": -32.08105553543831, "lon": 6.171726509550312, "alt_km": 757.2327064733809, "timestamp": "2025-12-21T09:37:22.305788+00:00", "meta": {"OBJECT_NAME": "GAOFEN-3", "OBJECT_ID": "2016-049A", "EPOCH": "2025-12-21T04:46:40.391904", "MEAN_MOTION": 14.42215935, "ECCENTRICITY": 0.0001243, "INCLINATION": 98.4031, "RA_OF_ASC_NODE": 0.6564, "ARG_OF_PERICENTER": 57.4323, "MEAN_ANOMALY": 302.6987, "EPHEMERIS_TYPE": 0, "CLASSIFICATION_TYPE": "U", "NORAD_CAT_ID": 41727, "ELEMENT_SET_NO": 999, "REV_AT_EPOCH": 49299, "BSTAR": 6.0352e-05, "MEAN_MOTION_DOT": 1.55e-06, "MEAN_MOTION_DDOT": 0}, "tle": {"line1": "1 41727U 16049A   25355.19907861  .00000155  00000+0  60352-4 0  9992", "line2": "2 41727  98.4031   0.6564 0001243  57.4323 302.6987 14.42215935492997"}}, "geometry": {"type": "Point", "coordinates": [6.171726509550312, -32.08105553543831]}}, {"type": "Feature", "properties": {"norad_id": 41771, "name": "SKYSAT-C4", "group": "resource", "lat": -38.99635485222877, "lon": -165.48865857170028, "alt_km": 445.43784937473356, "timestamp": "2025-12-21T09:37:22.305798+00:00", "meta": {"OBJECT_NAME": "SKYSAT-C4", "OBJECT_ID": "2016-058B", "EPOCH": "2025-12-21T00:53:26.064672", "MEAN_MOTION": 15.42468252, "ECCENTRICITY": 0.0002231, "INCLINATION": 96.9361, "RA_OF_ASC_NODE": 19.8219, "ARG_OF_PERICENTER": 128.0072, "MEAN_ANOMALY": 232.1378, "EPHEMERIS_TYPE": 0, "CLASSIFICATION_TYPE": "U", "NORAD_CAT_ID": 41771, "ELEMENT_SET_NO": 999, "REV_AT_EPOCH": 51795, "BSTAR": 0.00024326, "MEAN_MOTION_DOT": 0.00010455, "MEAN_MOTION_DDOT": 0}, "tle": {"line1": "1 41771U 16058B   25355.03710723  .00010455  00000+0  24326-3 0  9997", "line2": "2 41771  96.9361  19.8219 0002231 128.0072 232.1378 15.42468252517956"}}, "geometry": {"type": "Point", "coordinates": [-165.48865857170028, -38.99635485222877]}}, {"type": "Feature", "properties": {"norad_id": 41772, "name": "SKYSAT-C5", "group": "resource", "lat": -55.61125074934859, "lon": -151.66325067769722, "alt_km": 468.4337195771459, "timestamp": "2025-12-21T09:37:22.305808+00:00", "meta": {"OBJECT_NAME": "SKYSAT-C5", "OBJECT_ID": "2016-058C", "EPOCH": "2025-12-21T02:20:02.063040", "MEAN_MOTION": 15.34013342, "ECCENTRICITY": 0.0003794, "INCLINATION": 97.0744, "RA_OF_ASC_NODE": 38.5001, "ARG_OF_PERICENTER": 251.7619, "MEAN_ANOMALY": 108.3212, "EPHEMERIS_TYPE": 0, "CLASSIFICATION_TYPE": "U", "NORAD_CAT_ID": 41772, "ELEMENT_SET_NO": 999, "REV_AT_EPOCH": 51644, "BSTAR": 0.0001914, "MEAN_MOTION_DOT": 6.225e-05, "MEAN_MOTION_DDOT": 0}, "tle": {"line1": "1 41772U 16058C   25355.09724610  .00006225  00000+0  19140-3 0  9992", "line2": "2 41772  97.0744  38.5001 0003794 251.7619 108.3212 15.34013342516448"}}, "geometry": {"type": "Point", "coordinates": [-151.66325067769722, -55.61125074934859]}}, {"type": "Feature", "properties": {"norad_id": 41773, "name": "SKYSAT-C2", "group": "resource", "lat": -11.841922156015684, "lon": 21.044695473824955, "alt_km": 456.07969985822365, "timestamp": "2025-12-21T09:37:22.305818+00:00", "meta": {"OBJECT_NAME": "SKYSAT-C2", "OBJECT_ID": "2016-058D", "EPOCH": "2025-12-21T01:51:51.666048", "MEAN_MOTION": 15.37443909, "ECCENTRICITY": 0.0003299, "INCLINATION": 97.0347, "RA_OF_ASC_NODE": 19.2514, "ARG_OF_PERICENTER": 10.7695, "MEAN_ANOMALY": 349.3621, "EPHEMERIS_TYPE": 0, "CLASSIFICATION_TYPE": "U", "NORAD_CAT_ID": 41773, "ELEMENT_SET_NO": 999, "REV_AT_EPOCH": 51764, "BSTAR": 0.00022754, "MEAN_MOTION_DOT": 8.279e-05, "MEAN_MOTION_DDOT": 0}, "tle": {"line1": "1 41773U 16058D   25355.07768132  .00008279  00000+0  22754-3 0  9994", "line2": "2 41773  97.0347  19.2514 0003299  10.7695 349.3621 15.37443909517643"}}, "geometry": {"type": "Point", "coordinates": [21.044695473824955, -11.841922156015684]}}, {"type": "Feature", "properties": {"norad_id": 41774, "name": "SKYSAT-C3", "group": "resource", "lat": 39.848275416619174, "lon": 22.91966982450983, "alt_km": 428.74790112737446, "timestamp": "2025-12-21T09:37:22.305828+00:00", "meta": {"OBJECT_NAME": "SKYSAT-C3", "OBJECT_ID": "2016-058E", "EPOCH": "2025-12-20T08:34:23.687904", "MEAN_MOTION": 15.44652608, "ECCENTRICITY": 0.0001932, "INCLINATION": 96.9286, "RA_OF_ASC_NODE": 27.7493, "ARG_OF_PERICENTER": 107.595, "MEAN_ANOMALY": 252.5511, "EPHEMERIS_TYPE": 0, "CLASSIFICATION_TYPE": "U", "NORAD_CAT_ID": 41774, "ELEMENT_SET_NO": 999, "REV_AT_EPOCH": 51843, "BSTAR": 0.0002841356, "MEAN_MOTION_DOT": 0.00013163, "MEAN_MOTION_DDOT": 0}, "tle": {"line1": "1 41774U 16058E   25354.35721861  .00013163  00000+0  28414-3 0  9990", "line2": "2 41774  96.9286  27.7493 0001932 107.5950 252.5511 15.44652608518432"}}, "geometry": {"type": "Point", "coordinates": [22.91966982450983, 39.848275416619174]}}]}